OBJECT_NAME,OBJECT_ID,EPOCH,MEAN_MOTION,ECCENTRICITY,INCLINATION,RA_OF_ASC_NODE,ARG_OF_PERICENTER,MEAN_ANOMALY,EPHEMERIS_TYPE,CLASSIFICATION_TYPE,NORAD_CAT_ID,ELEMENT_SET_NO,REV_AT_EPOCH,BSTAR,MEAN_MOTION_DOT,MEAN_MOTION_DDOT
STARLINK-37384,2026-127T,2026-06-19T11:56:21.744960,15.81009978,.0000925,53.1583,250.5870,63.0861,297.0256,0,U,69460,999,177,.10413497E-2,.211267E-2,0
STARLINK-37707,2026-127U,2026-06-19T11:48:23.651424,15.80928456,.00006003,53.1592,250.5498,94.3008,265.8083,0,U,69461,999,177,.84376811E-3,.169577E-2,0
STARLINK-37525,2026-127V,2026-06-19T11:48:11.255616,15.80967070,.0001214,53.1588,250.5476,66.2001,293.9149,0,U,69462,999,177,.10764823E-2,.218161E-2,0
STARLINK-37526,2026-127W,2026-06-19T11:47:16.900512,15.80957744,.00016319,53.1592,250.5440,20.5930,339.5158,0,U,69463,999,177,.55101994E-3,.10988E-2,0
STARLINK-37574,2026-127X,2026-06-19T11:37:23.663424,15.80968306,.00027097,53.1591,250.4968,11.4442,348.6642,0,U,69464,999,177,.21549047E-3,.42232E-3,0
STARLINK-37535,2026-127Y,2026-06-19T13:11:08.242944,15.80901021,.00010165,53.1591,250.1928,49.8135,310.2977,0,U,69465,999,178,.49412896E-3,.98067E-3,0
STARLINK-37583,2026-127Z,2026-06-19T14:26:45.645216,15.81172625,.00009131,53.1588,249.8041,39.4408,320.6681,0,U,69466,999,179,-.31904304E-2,-.596966E-2,0
STARLINK-37546,2026-127AA,2026-06-19T14:23:32.515296,15.81520421,.00016848,53.1581,249.7880,14.6278,345.4794,0,U,69467,999,179,-.47795765E-2,-.879658E-2,0
STARLINK-37532,2026-127AB,2026-06-19T14:25:06.739680,15.80974727,.00003313,53.1584,249.7943,84.6582,275.4479,0,U,69468,999,179,-.11660712E-2,-.225966E-2,0
STARLINK-37708,2026-127AC,2026-06-19T08:19:06.697920,15.81832705,.00018073,53.1584,251.0527,17.5853,342.5232,0,U,69469,999,175,-.40309473E-2,-.76322E-2,0
STARLINK-37686,2026-127AD,2026-06-19T14:20:12.923520,15.81239032,.00032806,53.1580,249.7716,175.4217,184.6837,0,U,69470,999,179,-.4279618E-2,-.786521E-2,0
STARLINK-37451,2026-127AE,2026-06-19T12:46:21.766368,15.82085986,.0003132,53.1577,250.0774,348.8184,11.2769,0,U,69471,999,178,-.48096456E-2,-.906815E-2,0
DTC TEST OBJECT A,2026-128A,2026-06-19T14:37:28.975296,15.55938893,.00086887,54.9940,293.8391,298.3485,61.6674,0,U,69472,999,160,.32969394E-3,.22874E-3,0
DTC TEST OBJECT B,2026-128B,2026-06-19T14:34:03.624960,15.56417593,.00087204,55.0030,293.8332,299.2555,60.7609,0,U,69473,999,159,.39748937E-3,.28198E-3,0
TJS-25,2026-129A,2026-06-11T11:34:53.014656,1.72502163,.7751889,16.5302,30.5351,199.9639,91.9387,0,U,69474,999,7,.19774E-2,.7407E-4,0
STARLINK-37816,2026-131A,2026-06-17T18:00:02.999808,15.96316495,.00011495,97.2824,188.9762,80.4448,35.9636,0,U,69478,999,210,-.2655077E-2,-.1093379E-1,.37145704E-3
STARLINK-37878,2026-131B,2026-06-17T10:00:01.999584,15.97036350,.00008726,97.2817,188.6149,97.2660,265.8231,0,U,69479,999,131,-.22776066E-2,-.976144E-2,.30334162E-3
STARLINK-37817,2026-131C,2026-06-17T18:00:02.999808,15.96547425,.00011812,97.2822,188.9776,77.8521,42.4103,0,U,69480,999,210,-.26268227E-2,-.1095329E-1,.37360476E-3
STARLINK-37727,2026-131D,2026-06-17T18:00:02.999808,15.96671350,.00011745,97.2819,188.9784,76.6396,45.7078,0,U,69481,999,210,-.26175375E-2,-.1098784E-1,.37628858E-3
STARLINK-37814,2026-131E,2026-06-17T18:00:02.999808,15.96778578,.00011811,97.2821,188.9793,77.2384,46.9070,0,U,69482,999,210,-.26030553E-2,-.1099082E-1,.37691003E-3
STARLINK-37869,2026-131F,2026-06-17T18:00:02.999808,15.96910777,.00011494,97.2820,188.9802,76.2430,50.1342,0,U,69483,999,210,-.2603614E-2,-.1107172E-1,.38260644E-3
STARLINK-37873,2026-131G,2026-06-17T18:00:02.999808,15.97024990,.00011606,97.2820,188.9809,76.2701,51.9896,0,U,69484,999,210,-.25920221E-2,-.1109103E-1,.3843137E-3
STARLINK-37892,2026-131H,2026-06-17T18:00:02.999808,15.97108252,.00011498,97.2819,188.9816,78.7411,50.8476,0,U,69485,999,210,-.25572949E-2,-.1099303E-1,.37838735E-3
STARLINK-37893,2026-131J,2026-06-17T18:00:02.999808,15.97225915,.00011655,97.2818,188.9823,77.5835,53.9573,0,U,69486,999,218,-.25487385E-2,-.1102657E-1,.3810102E-3
STARLINK-37842,2026-131K,2026-06-17T20:00:01.999872,15.97137733,.0001069,97.2817,189.0737,79.0004,173.2061,0,U,69487,999,211,-.24442105E-2,-.1052755E-1,.34935296E-3
STARLINK-37449,2026-131L,2026-06-17T20:00:01.999872,15.97254920,.00010931,97.2818,189.0744,79.7938,174.4151,0,U,69488,999,220,-.24338781E-2,-.1055018E-1,.35118975E-3
STARLINK-37831,2026-131M,2026-06-17T10:00:01.999584,15.98221671,.00009334,97.2813,188.6216,90.8599,290.4087,0,U,69489,999,131,-.21761412E-2,-.995223E-2,.31852185E-3
STARLINK-37879,2026-131N,2026-06-17T20:00:01.999872,15.97486806,.00010973,97.2816,189.0761,79.1630,178.9501,0,U,69490,999,211,-.24145498E-2,-.1059963E-1,.35513589E-3
STARLINK-37856,2026-131P,2026-06-17T20:00:01.999872,15.97605672,.00011136,97.2816,189.0765,78.4450,181.6887,0,U,69491,999,217,-.24065046E-2,-.1063313E-1,.35767922E-3
